GALAXY 25 (G-25)        
1 24812U 97026A   22307.49075084 -.00000009  00000+0  00000+0 0  9990
2 24812   4.0336  82.2203 0005069 176.7259  26.5791  1.00272407 93116
INTELSAT 5 (IS-5)       
1 24916U 97046A   22306.84493778 -.00000066  00000+0  00000+0 0  9992
2 24916   7.5215  60.0692 0005778 171.3430 281.0385  1.00273605 92353
GALAXY 11 (G-11)        
1 26038U 99071A   22307.22552516 -.00000168  00000+0  00000+0 0  9991
2 26038   3.3667  85.8107 0001913 206.9086  97.8587  1.00270663 83820
INTELSAT 9 (IS-9)       
1 26451U 00043A   22307.33332553 -.00000292  00000+0  00000+0 0  9998
2 26451   7.5088  60.2498 0003533 164.8014 247.5352  1.00268352 81593
INTELSAT 1R (IS-1R)     
1 26608U 00072A   22307.37746644 -.00000143  00000+0  00000+0 0  9993
2 26608   4.7650  79.4462 0000579 239.1928  16.9865  1.00270970 80406
INTELSAT 10 (IS-10)     
1 26766U 01019A   22307.08256584  .00000030  00000+0  00000+0 0  9991
2 26766   5.9054  72.1551 0003799 157.4340  20.2692  1.00271225 78674
INTELSAT 901 (IS-901)   
1 26824U 01024A   22307.17549455 -.00000210  00000+0  00000+0 0  9995
2 26824   0.0531  68.2476 0000993 143.8768 226.0136  1.00271472 78339
INTELSAT 902 (IS-902)   
1 26900U 01039A   22307.46755554 -.00000288  00000+0  00000+0 0  9992
2 26900   2.7519  87.4182 0003231 152.0972 281.4428  1.00272362 77510
INTELSAT 904 (IS-904)   
1 27380U 02007A   22307.15604965 -.00000219  00000+0  00000+0 0  9990
2 27380   3.5823  84.4242 0002920 139.7398 204.9351  1.00271126 75837
DIRECTV 5 (TEMPO 1)     
1 27426U 02023A   22306.65404752 -.00000062  00000+0  00000+0 0  9991
2 27426   1.4760  91.4648 0003199 121.9114 313.8898  1.00271729 74868
INTELSAT 905 (IS-905)   
1 27438U 02027A   22307.06646644 -.00000190  00000+0  00000+0 0  9994
2 27438   3.4042  85.1473 0002608 128.8243 187.7899  1.00271577 74719
GALAXY 3C (G-3C)        
1 27445U 02030A   22306.88476520 -.00000160  00000+0  00000+0 0  9996
2 27445   0.3291  90.4823 0000601 214.8534 320.4693  1.00271659 74693
INTELSAT 906 (IS-906)   
1 27513U 02041A   22307.49040204  .00000009  00000+0  00000+0 0  9999
2 27513   2.4212  88.8405 0003433 144.1980  50.3923  1.00272020 73718
GALAXY 12 (G-12)        
1 27715U 03013B   22307.20584089  .00000053  00000+0  00000+0 0  9995
2 27715   3.6150  84.0736 0002006 149.9582 113.5274  1.00269860 71758
GALAXY 23 (G-23)        
1 27854U 03034A   22307.50791362  .00000005  00000+0  00000+0 0  9996
2 27854   0.0186 258.9911 0003291 334.8022 230.8401  1.00271646 75293
GALAXY 13 (HORIZONS-1)  
1 27954U 03044A   22306.63417219  .00000041  00000+0  00000+0 0  9997
2 27954   0.0327 103.8313 0000873  84.3209 315.0250  1.00270572 33314
INTELSAT 10-02          
1 28358U 04022A   22307.18729872 -.00000019  00000+0  00000+0 0  9991
2 28358   0.0048  78.0741 0000809 163.5589 227.2528  1.00270759 67373
XM-3 (RHYTHM)           
1 28626U 05008A   22306.46318889 -.00000213  00000+0  00000+0 0  9992
2 28626   0.0400  87.3140 0001909  87.8316 308.2457  1.00272713 64805
DIRECTV 8               
1 28659U 05019A   22306.64389036 -.00000007  00000+0  00000+0 0  9993
2 28659   0.0120 223.6462 0002824  12.2519 278.7708  1.00272290 63816
GALAXY 28 (G-28)        
1 28702U 05022A   22307.22839528 -.00000193  00000+0  00000+0 0  9993
2 28702   0.0224 310.7189 0002041 306.4950 138.4854  1.00272930 63570
GALAXY 14 (G-14)        
1 28790U 05030A   22307.48412361  .00000149  00000+0  00000+0 0  9999
2 28790   1.6112  90.6407 0001971 124.4494  34.8331  1.00270677 63046
GALAXY 15 (G-15)        
1 28884U 05041A   22307.14500141  .00000046  00000+0  00000+0 0  9998
2 28884   0.1628  90.7748 0003614 156.8381  78.2637  1.00299334 62349
SPACEWAY 2              
1 28903U 05046B   22307.49509819  .00000097  00000+0  00000+0 0  9990
2 28903   2.2203  86.5051 0000271 329.3930  26.1745  1.00272387 62246
GALAXY 16 (G-16)        
1 29236U 06023A   22307.37401531 -.00000134  00000+0  00000+0 0  9998
2 29236   0.0195 260.4040 0002598 317.1625 220.6961  1.00269383 60019
DIRECTV 9S              
1 29494U 06043A   22307.22081885 -.00000121  00000+0  00000+0 0  9992
2 29494   0.0169 216.2341 0003129  10.2182 154.3260  1.00271914 58856
XM-4 (BLUES)            
1 29520U 06049A   22307.45312653 -.00000213  00000+0  00000+0 0  9995
2 29520   0.0325 315.5536 0001598   9.7730 155.3788  1.00269780 58741
GALAXY 17 (G-17)        
1 31307U 07016B   22307.22688269 -.00000182  00000+0  00000+0 0  9995
2 31307   0.0222   5.7394 0003298 234.8641 152.5662  1.00270399 56829
DIRECTV 10              
1 31862U 07032A   22307.47157493 -.00000110  00000+0  00000+0 0  9997
2 31862   0.0207 115.6513 0000167  42.2820 311.7524  1.00268341 56150
SPACEWAY 3              
1 32018U 07036A   22307.22460912 -.00000159  00000+0  00000+0 0  9994
2 32018   0.5812  90.6787 0000264  33.5851 264.1167  1.00270974 55878
INTELSAT 11 (IS-11)     
1 32253U 07044B   22307.16160402 -.00000276  00000+0  00000+0 0  9998
2 32253   0.1376  92.3008 0002084 148.8467 176.4404  1.00269470 55272
HORIZONS-2              
1 32388U 07063B   22307.17482333 -.00000261  00000+0  00000+0 0  9993
2 32388   0.0094 234.8083 0002940  17.6138 139.1362  1.00269433 54628
DIRECTV 11              
1 32729U 08013A   22306.88389319 -.00000134  00000+0  00000+0 0  9994
2 32729   0.0113 124.3760 0000216  73.2613  63.5361  1.00271810 53679
GALAXY 18 (G-18)        
1 32951U 08024A   22307.18145877  .00000017  00000+0  00000+0 0  9995
2 32951   0.0273 274.8233 0002873 294.5095 135.4303  1.00269088 52838
INTELSAT 25 (IS-25)     
1 33153U 08034A   22307.15604965 -.00000231  00000+0  00000+0 0  9995
2 33153   0.0132 276.3113 0002999 291.6484 219.1413  1.00272276 52385
GALAXY 19 (G-19)        
1 33376U 08045A   22306.52883968 -.00000147  00000+0  00000+0 0  9992
2 33376   0.0166 263.2693 0002601 313.4695 278.4372  1.00271940 51641
FM-5                    
1 35493U 09034A   22306.46318903 -.00000208  00000+0  00000+0 0  9996
2 35493   0.0140 276.6260 0000324 163.9934  41.7225  1.00269888 33384
INTELSAT 14 (IS-14)     
1 36097U 09064A   22307.25339138 -.00000282  00000+0  00000+0 0  9993
2 36097   0.0116 248.1311 0002655 342.5484 218.0343  1.00267112 47443
INTELSAT 15 (IS-15)     
1 36106U 09067A   22306.84890583 -.00000193  00000+0  00000+0 0  9998
2 36106   0.0213 301.2228 0002242 274.8072 216.8413  1.00270283 27964
DIRECTV 12              
1 36131U 09075A   22307.05031035 -.00000111  00000+0  00000+0 0  9998
2 36131   0.0175 152.1814 0000112 359.1811 166.3498  1.00271043 47122
INTELSAT 16 (IS-16)     
1 36397U 10006A   22306.46893693 -.00000252  00000+0  00000+0 0  9994
2 36397   0.0211 293.7487 0002051 278.6469 281.9603  1.00269426 46395
XM-5                    
1 37185U 10053A   22306.64881456 -.00000030  00000+0  00000+0 0  9990
2 37185   0.0193 262.0039 0000973 264.3201 353.9603  1.00269975 44228
INTELSAT 17 (IS-17)     
1 37238U 10065B   22307.10952368 -.00000010  00000+0  00000+0 0  9993
2 37238   0.0235 247.3631 0002422 331.6374 288.8093  1.00270883 43664
INTELSAT NEW DAWN       
1 37392U 11016A   22306.47978735  .00000148  00000+0  00000+0 0  9997
2 37392   0.0236 146.7328 0001175  73.8936  26.6540  1.00271104 40023
INTELSAT 18 (IS-18)     
1 37834U 11056A   22306.83452296  .00000045  00000+0  00000+0 0  9997
2 37834   0.0306 352.8188 0001920 226.9023 302.8268  1.00274021 40557
INTELSAT 22 (IS-22)     
1 38098U 12011A   22307.48031707 -.00000067  00000+0  00000+0 0  9999
2 38098   0.0175 280.3740 0002874 299.8735  67.5050  1.00272590 38797
INTELSAT 19 (IS-19)     
1 38356U 12030A   22307.56995465 -.00000064  00000+0  00000+0 0  9993
2 38356   0.0174 259.9173 0003207 325.2261 188.8447  1.00270404 38265
INTELSAT 20 (IS-20)     
1 38740U 12043A   22307.52793061 -.00000032  00000+0  00000+0 0  9993
2 38740   0.0299 128.4116 0003021  65.4418 107.4842  1.00270714 37571
INTELSAT 21 (IS-21)     
1 38749U 12045A   22306.52500319 -.00000292  00000+0  00000+0 0  9993
2 38749   0.0016  44.8455 0002423 175.3687 312.5815  1.00269705 37272
INTELSAT 23 (IS-23)     
1 38867U 12057A   22307.50227743 -.00000292  00000+0  00000+0 0  9993
2 38867   0.0132 268.9194 0001160 138.0336 123.6111  1.00273380 36852
FM-6                    
1 39360U 13058A   22306.64724177 -.00000024  00000+0  00000+0 0  9994
2 39360   0.0278 276.1429 0000335 202.4483  40.1732  1.00270171 32804
INTELSAT 30 (IS-30)     
1 40271U 14062A   22307.47643164 -.00000158  00000+0  00000+0 0  9999
2 40271   0.0190 256.3075 0002018 207.1441  15.7100  1.00269071 29511
DIRECTV 14              
1 40333U 14078B   22307.22233667 -.00000133  00000+0  00000+0 0  9994
2 40333   0.0139 121.2524 0000200  65.7854 196.2531  1.00269953 28992
DIRECTV 15              
1 40663U 15026A   22307.22005694 -.00000110  00000+0  00000+0 0  9996
2 40663   0.0065 220.2080 0000420 250.1239 268.4995  1.00267871 27288
SKY MEXICO-1            
1 40664U 15026B   22307.17180333 -.00000243  00000+0  00000+0 0  9992
2 40664   0.0129 328.0866 0002023 243.8995 173.5446  1.00271060 27279
INTELSAT 34 (IS-34)     
1 40874U 15039A   22307.18462500 -.00000293  00000+0  00000+0 0  9994
2 40874   0.0152 251.3429 0000175 254.3821 267.6653  1.00266969 26368
INTELSAT 31 (IS-31)     
1 41581U 16035A   22307.47643105 -.00000158  00000+0  00000+0 0  9991
2 41581   0.0146 247.5200 0001657 319.9100 271.7562  1.00269912 23436
INTELSAT 36 (IS-36)     
1 41747U 16053A   22306.74007552 -.00000032  00000+0  00000+0 0  9995
2 41747   0.0114 324.7590 0001400  51.7052   0.4704  1.00270564 22684
INTELSAT 33E (IS-33E)   
1 41748U 16053B   22307.48953003  .00000042  00000+0  00000+0 0  9999
2 41748   0.0084 256.9244 0001689 322.5769  59.4407  1.00269275 22968
INTELSAT 32E (IS-32E)   
1 41945U 17007B   22306.52827076 -.00000277  00000+0  00000+0 0  9993
2 41945   0.0118 231.3600 0000355 254.6605  62.7679  1.00269054 20973
INTELSAT 35E (IS-35E)   
1 42818U 17041A   22307.15604965 -.00000246  00000+0  00000+0 0  9997
2 42818   0.0163 251.5895 0001776 313.6008 218.8903  1.00269712 19551
INTELSAT 37E (IS-37E)   
1 42950U 17059A   22307.12063534 -.00000149  00000+0  00000+0 0  9993
2 42950   0.0174 252.1585 0002784 323.8420 211.7879  1.00270250 18781
AZERSPACE 2 (IS-38)     
1 43632U 18074A   22307.48656522  .00000129  00000+0  00000+0 0  9990
2 43632   0.0108 225.8460 0001421   1.0539  36.1253  1.00272026 15187
HORIZONS-3E             
1 43633U 18074B   22306.69563052 -.00000039  00000+0  00000+0 0  9999
2 43633   0.0162  74.6029 0001608 216.5196 170.2550  1.00268800 15082
AT&T T-16               
1 44333U 19034A   22306.89661361 -.00000123  00000+0  00000+0 0  9992
2 44333   0.0528  85.2381 0000300 124.1342  54.6998  1.00269803 12374
INTELSAT 39 (IS-39)     
1 44476U 19049B   22307.15466118  .00000025  00000+0  00000+0 0  9999
2 44476   0.0194 262.9988 0000502 220.6948  36.3436  1.00270611 11873
GALAXY 30 (G-30)        
1 46114U 20056C   22306.63718101  .00000029  00000+0  00000+0 0  9998
2 46114   0.0134 272.1513 0002141 296.4212 297.7267  1.00270346  8035
